[{"OBJECT_NAME":"STARLINK-5944","OBJECT_ID":"2023-042R","EPOCH":"2026-03-09T23:07:52.749408","MEAN_MOTION":15.02536171,"ECCENTRICITY":0.00011431,"INCLINATION":43.0045,"RA_OF_ASC_NODE":54.4406,"ARG_OF_PERICENTER":266.9792,"MEAN_ANOMALY":93.092,"EPHEMERIS_TYPE":0,"CLASSIFICATION_TYPE":"U","NORAD_CAT_ID":56001,"ELEMENT_SET_NO":999,"REV_AT_EPOCH":16295,"BSTAR":3.5653266e-5,"MEAN_MOTION_DOT":2.78e-6,"MEAN_MOTION_DDOT":0},{"OBJECT_NAME":"QPS-SAR-8 (AMATERU-IV)","OBJECT_ID":"2024-149CC","EPOCH":"2026-03-09T16:54:01.213344","MEAN_MOTION":15.03026697,"ECCENTRICITY":0.0003873,"INCLINATION":97.6699,"RA_OF_ASC_NODE":148.7511,"ARG_OF_PERICENTER":93.15,"MEAN_ANOMALY":267.0168,"EPHEMERIS_TYPE":0,"CLASSIFICATION_TYPE":"U","NORAD_CAT_ID":60542,"ELEMENT_SET_NO":999,"REV_AT_EPOCH":8532,"BSTAR":0.00061811246,"MEAN_MOTION_DOT":8.268e-5,"MEAN_MOTION_DDOT":0}]
